{"type":"FeatureCollection","name":"HUC12 121002010305","crs":{"type":"name","properties":{"name":"EPSG:2278"}},"features":[{"type":"Feature","properties":{"huc12":"121002010305","name":"Upper Guadalupe 3 breakout review domain","source":"USGS WBD HUC12"},"geometry":{"type":"Polygon","coordinates":[[[2087365.5181243096,13925673.01124693],[2087278.5636474856,13925912.201066406],[2087270.9270915422,13926378.43755099],[2086858.1689014588,13926378.496803395],[2086865.820581348,13926546.660892176],[2087202.2033349308,13927299.545701765],[2087049.3389457874,13927605.297527468],[2087057.0344120783,13927949.26688667],[2087164.0471760996,13928331.42861769],[2087057.059993229,13928751.86422792],[2086812.4999417283,13929218.147423005],[2086422.6766612988,13929455.129655795],[2086155.1605492122,13929378.720241101],[2086017.5678650471,13929153.205557257],[2085459.5554484313,13929050.078139085],[2085167.4264877865,13929243.352899557],[2085100.3451620012,13929615.716867073],[2084916.8849749998,13929837.404658724],[2084572.9289213042,13930047.642192408],[2084488.8813178837,13930330.441187982],[2084290.1350517718,13930445.1113112],[2083915.599623191,13930380.168530863],[2083648.1001879673,13930563.663718857],[2083426.441607537,13930792.992439952],[2083204.832180479,13931733.183182133],[2082952.5754360787,13931832.548582215],[2082104.1242377763,13931649.191663131],[2081637.8556623706,13931649.223960629],[2081630.1933512846,13931767.701517677],[2081507.9073199602,13931928.205168819],[2080919.3591237448,13932180.478839764],[2080804.72997544,13932127.008494394],[2080483.705634397,13932539.789827464],[2080399.626305499,13932822.619372506],[2080193.2441629951,13933025.177866388],[2079757.571484895,13933124.554516591],[2079635.3298598672,13933950.114841824],[2079436.5933017456,13934232.951529251],[2079505.4245430438,13934408.752517402],[2079169.1063591244,13934618.929607565],[2078802.192180263,13934733.641859377],[2078465.9186330703,13935161.73552657],[2077716.775438747,13934878.992868753],[2077453.458242096,13935029.63486859],[2076825.1911801083,13935893.612260671],[2076218.7322574258,13936606.53451678],[2076218.7232490832,13936919.948649975],[2076348.736023378,13937141.614798464],[2076272.2943779917,13937390.035529424],[2075997.1026056025,13937749.336141199],[2075393.285571552,13937749.346620444],[2075034.047330841,13937978.685138103],[2074835.291180224,13937978.698493736],[2074185.5635621438,13937810.543354226],[2074006.6088484607,13937813.641690232],[2073780.434248342,13938185.13296712],[2073497.6592931391,13938468.00653196],[2073207.2392213456,13939159.792675054],[2072970.2955830565,13939343.223460238],[2072748.6239985882,13939404.387611242],[2072252.6459262627,13939838.359894007],[2071976.626516728,13939702.572809974],[2071602.0580646447,13939633.74651861],[2071219.8598458082,13939710.230115691],[2070830.0339070058,13939503.918913968],[2070486.0478079505,13939308.974340858],[2070172.6451368663,13939507.78117552],[2069698.7643164764,13939507.810690168],[2069377.6666497553,13939309.10419642],[2069079.6147080327,13939660.70727091],[2068964.9437176827,13939962.669191653],[2068965.0042760887,13940421.270782486],[2068865.9219952265,13940761.890138023],[2068965.0147735504,13941086.270256393],[2068965.064193113,13941376.765704563],[2068590.9199178445,13941750.558585659],[2067706.260742236,13941259.986239806],[2067349.4574897294,13941349.24071097],[2067193.3699931817,13941505.316733364],[2067111.5864807717,13941877.013965717],[2066933.1916217557,13942055.460462512],[2066821.7023809033,13942389.968917094],[2066568.9891716489,13942583.302212048],[2066033.7931208706,13942895.528515132],[2065736.4076229834,13942672.494721917],[2065409.2892197866,13942479.258479146],[2064792.3399911497,13942665.186830457],[2064561.8826654092,13943014.55520179],[2064261.1550404567,13943125.99259333],[2064146.4863273844,13942952.0250673],[2063592.0939445808,13942662.967807528],[2063403.4972397771,13942410.468002211],[2063150.9798320516,13942305.328463534],[2062972.142529297,13942227.841194244],[2062763.5138633198,13942221.894111624],[2062402.8743073195,13942078.86751087],[2062402.8598902486,13941819.540990856],[2062376.0160026734,13941604.95577186],[2062375.9972756158,13941289.034157468],[2062489.226271344,13940880.664138388],[2062489.2087821846,13940585.644881913],[2062361.033545859,13940424.696595516],[2062134.528153362,13940421.74646277],[2061794.7228706707,13940141.598669257],[2061717.2468744018,13939977.652810954],[2061624.825009189,13939789.902589368],[2061487.7312494956,13939700.494045125],[2061425.1171173018,13939733.287933664],[2061189.6885951115,13939733.301104162],[2061007.8558240358,13939646.890167428],[2060766.4462858357,13939798.905823955],[2060617.4434064117,13939840.627327051],[2060301.4651501628,13939390.630897561],[2060122.6193293612,13939178.987653278],[2060164.3564785805,13939062.737072079],[2060164.3420672345,13938785.565157164],[2060185.203933648,13938624.608934091],[2060137.4938853837,13938487.522496095],[2060137.482533283,13938296.771562293],[2060042.099551802,13938156.694170604],[2059900.1168795484,13938066.61371894],[2059735.1042564956,13938198.455086507],[2059541.3918886236,13938255.123031747],[2059317.8512626619,13938255.13473234],[2059198.633777172,13938150.782896947],[2059082.3769475727,13937974.951296845],[2059150.9143232524,13937840.822542652],[2059261.174108584,13937360.945716143],[2059368.4557753496,13937128.475044861],[2059425.0702211517,13936925.803547041],[2059389.3034215632,13936708.225140834],[2059390.6354927442,13936480.86466191],[2059544.2310060407,13936007.798750898],[2059594.9124587888,13935727.62997217],[2059952.5398558858,13935617.351876466],[2060159.4453927309,13935414.030095648],[2060457.3618124675,13935337.127204549],[2060542.6082364686,13935095.735206151],[2060611.1995041987,13934857.247076113],[2060456.1931724383,13934675.490885407],[2060286.2786141397,13934550.330365693],[2060202.6614118074,13934433.720964814],[2059845.1760623017,13934344.690964976],[2059615.6701425354,13934243.371080093],[2059338.5333848041,13934305.970691212],[2059135.8256059836,13934139.068236968],[2058951.029008808,13934043.703294402],[2058891.3934080566,13933781.416659694],[2058930.1267955888,13933483.401740056],[2058718.5006690258,13933417.834523613],[2058626.1164561284,13933343.335653834],[2058518.8456144107,13933185.381608434],[2058518.828715767,13932866.466164494],[2058450.2398541195,13932619.093883017],[2058049.7259812958,13932521.295754503],[2057794.5201961459,13932389.660797091],[2057627.6011128007,13932291.269324627],[2057439.8374780791,13932142.273109501],[2057266.9614369334,13932076.703837309],[2057028.5041887295,13931999.217416681],[2056620.2028492608,13931999.238857068],[2056514.3581365068,13931642.009173675],[2056414.511095797,13931444.87803299],[2056500.9193831875,13931197.49653705],[2056500.9019660065,13930869.658401765],[2056450.2264838815,13930699.78295498],[2056336.965706459,13930547.787985245],[2056387.6287884295,13930476.246535767],[2056387.6212632991,13930315.26141372],[2056477.017922455,13929960.618128106],[2056459.1295764113,13929751.993143048],[2056500.8379050915,13929647.661809297],[2056557.4901438423,13929564.202093493],[2056663.1805799212,13929316.179685393],[2056694.5579455884,13929176.736286528],[2056876.3390221864,13928905.515315672],[2056816.7322801307,13928607.506836576],[2056816.727009998,13928497.188313292],[2056867.385620658,13928339.22523617],[2057120.712320795,13928181.252367293],[2057453.6097206452,13927941.80451778],[2057594.5729941288,13927847.46158676],[2057779.3431274607,13927456.967685029],[2057755.5030076457,13927376.507766047],[2057636.2854032351,13927257.30376333],[2057576.6566502177,13927105.275187643],[2057558.7756822458,13927015.8917104],[2057558.7670065558,13926860.8963448],[2057198.133307893,13926732.750310743],[2057087.8416661178,13926655.257720077],[2056816.8016879275,13926428.1578453],[2056677.4424578752,13926235.94809357],[2056792.7259290123,13925934.0193697],[2056980.5048540446,13925817.763052095],[2057171.242877753,13925594.213661443],[2057305.3554871674,13925394.535776388],[2057367.9255084717,13925111.34171241],[2057367.909630317,13924795.422025423],[2057344.0660187611,13924661.331055567],[2057311.2711896584,13924574.912687253],[2057379.812639973,13924515.287167525],[2057436.431591563,13924378.197436357],[2057436.4228357996,13924214.247535525],[2057469.2024909607,13924035.415353624],[2057585.4423380464,13923886.403698865],[2057856.6749678927,13923734.388827616],[2058074.2207131097,13923668.798827957],[2058264.9649469107,13923576.409298453],[2058440.793443202,13923415.44491854],[2058387.1159392435,13923123.365988834],[2058309.6377990304,13922902.825178819],[2058184.4183634722,13922530.287684146],[2058005.614417889,13922464.71760287],[2057987.7013842547,13922363.386327485],[2057987.6940806494,13922217.344036855],[2057931.0560036048,13921990.783102296],[2057767.0935346629,13921728.565209141],[2057540.6409245934,13921502.043553598],[2057230.6157119912,13921418.60404427],[2057051.8069463146,13921245.771217862],[2057051.7989145443,13921084.81789336],[2056996.7258962838,13920983.701082746],[2057069.6526040926,13920631.781159543],[2057194.8366003262,13920315.85589481],[2057457.0837867511,13920148.92966054],[2057516.6651488482,13919976.08633545],[2057910.0899828752,13919570.701641276],[2058099.4798865179,13919292.147867268],[2058249.8266022743,13919236.890285445],[2058249.8150105164,13919016.346637161],[2058327.3008542045,13918789.808341887],[2058111.4395222631,13918335.899118226],[2057931.202191397,13917706.396448683],[2057558.2735452475,13917335.399441572],[2057713.246374876,13916906.253086958],[2057641.695268935,13916655.858354436],[2057588.0088691649,13916167.072682768],[2057653.5785633947,13915970.361356633],[2057653.564492705,13915702.116409492],[2057564.1384413019,13915463.700448936],[2057272.0526528743,13915386.218414782],[2056847.4445389512,13914904.939018872],[2056783.2269826655,13914647.085994411],[2056860.7100971327,13914355.002189538],[2056938.1656311112,13914146.372791126],[2057039.520501084,13913949.660861053],[2056997.7700986392,13913818.53439716],[2057760.7455689667,13913484.67216824],[2058128.0237912356,13913323.945429718],[2058356.810393297,13913186.602372212],[2058435.5100692199,13912804.949953062],[2058464.3178150994,13912617.53178195],[2058470.005040594,13912077.893110812],[2058624.9671495566,13911463.899918417],[2058553.4162288131,13911177.781980721],[2058654.7317647373,13910843.984104553],[2058654.7055228804,13910313.453470984],[2058434.1163440505,13909389.552496824],[2058189.6890831308,13909014.02835364],[2057903.5350308693,13908328.550419314],[2057367.0406753316,13907583.463255065],[2057188.1774366049,13906897.97967644],[2057408.6924251015,13906337.645410493],[2057772.2741098625,13905598.474932749],[2057858.4848516593,13905073.22851034],[2057688.7397251115,13903971.169732168],[2056812.4899947336,13903738.752663327],[2056705.161492736,13902951.933643863],[2056705.1415347657,13902540.64650075],[2056850.5676620821,13901840.2971346],[2056961.4211947452,13901551.115483366],[2057103.9409999736,13900794.845265903],[2057038.6527974894,13899813.093040928],[2057217.909694223,13899165.365359249],[2057229.4724081,13898772.106901035],[2057194.7437226437,13898477.157407701],[2057134.1300882164,13898135.577231685],[2057008.9208922565,13897891.17494459],[2056952.6314037596,13897709.0456964],[2056921.6089813248,13897512.168852542],[2056945.012762169,13897512.123135788],[2057327.7207384214,13897511.379781283],[2057586.8929303298,13897644.51026627],[2057660.1806196412,13897817.712283332],[2057850.083601963,13898070.881846754],[2058083.2544052105,13898274.054201368],[2058356.3859465276,13898274.041794967],[2058852.7797502247,13898923.600457046],[2059135.932249786,13899516.514727334],[2059369.1532942634,13900082.783651289],[2059362.5045803473,13900355.916092845],[2059609.0203508139,13900995.464707294],[2059958.8141222883,13901405.176306937],[2060011.296548688,13901704.036454257],[2060115.388613386,13901900.645917432],[2060595.4111334395,13902050.969638305],[2060953.9656660203,13902282.28123302],[2061115.9164698783,13902681.306433482],[2061318.338570476,13902739.144684976],[2061511.175559046,13902977.369926246],[2061677.7349484244,13903283.832990056],[2061784.4001904626,13904203.213800343],[2061784.4125435709,13904449.699539367],[2061711.112073149,13904642.894772878],[2062070.8883120783,13904819.443914529],[2062367.3856628821,13905172.534120493],[2062650.5167554452,13905282.438118493],[2062840.4141426454,13905409.003085379],[2062996.9847160422,13905772.09286307],[2063123.5771466368,13906121.859947873],[2063266.811313068,13906238.433301842],[2063416.7437989332,13906464.956086596],[2063776.497055797,13906814.681939559],[2064242.8532008699,13906814.657565389],[2064732.4980203782,13906328.290667057],[2065162.209468501,13906225.041629376],[2065568.6079322048,13906225.020318974],[2065518.65552357,13906431.506947266],[2065515.3528607846,13906971.142504795],[2065618.625766062,13907264.285800291],[2065528.7390599314,13907560.739561383],[2065528.767116794,13908100.374914821],[2065881.8544945684,13908350.20392257],[2066258.2656934652,13908716.612484135],[2066334.884707339,13908883.12157928],[2066374.896046737,13909069.679933928],[2066718.003308867,13909529.356171658],[2066849.4469793655,13909729.110431438],[2066971.2077858243,13910005.690282622],[2067147.7569595785,13910202.23417365],[2067310.9788144974,13910365.439254036],[2067490.887674969,13910538.634858606],[2067490.8997268018,13910768.498433188],[2067410.970730944,13911001.665590184],[2067161.1368762476,13911251.526478117],[2066904.6670484075,13911424.747190518],[2066791.4022593875,13911714.573113054],[2067037.9330574926,13911964.375506744],[2067107.9110095124,13912490.684529003],[2067565.6327263734,13912732.378227351],[2067900.7490104164,13912907.033882296],[2068377.1088939654,13913083.54511482],[2068786.818067755,13913250.097404925],[2069006.689496263,13913283.3939135],[2070015.982938425,13913283.336867843],[2070232.5322129058,13913463.192568658],[2070788.8299841362,13913589.735308588],[2071081.9813070814,13913619.695467679],[2071195.244942906,13913839.560141789],[2071375.123846992,13914019.417480284],[2071528.3803187085,13914119.336582964],[2071581.6925668458,13914412.482322464],[2071754.9300454047,13914935.45455085],[2071754.9626437158,13915498.406437367],[2072071.4481109558,13915824.846999198],[2072178.0593437888,13916207.894684777],[2072371.2656106863,13916444.40852056],[2072667.7630482214,13916730.848011337],[2072894.2715828833,13916850.777963933],[2072994.230615299,13916877.4181145],[2073080.834792898,13916877.414348647],[2073137.4581727989,13916847.431981668],[2073200.744222508,13916827.443301389],[2073267.3615618048,13916827.43859998],[2073333.9839290532,13916887.391554944],[2073502.8874504643,13916984.741540903],[2073717.0781734004,13917063.906348553],[2073896.9474907187,13917063.895349512],[2074105.935648625,13917008.723743044],[2074293.1430117332,13917090.915728722],[2074420.3024339466,13917157.83227813],[2074530.721683759,13917331.826228127],[2074627.7817662337,13917428.875473276],[2074681.3242379113,13917489.102432411],[2074711.4296273831,13917576.102570243],[2074711.4343965417,13917659.741922902],[2074795.1130292362,13917796.94522043],[2074898.8106585932,13917989.33664418],[2074949.0591978028,13918143.25798817],[2075156.5221448778,13918143.245389128],[2075246.845095159,13918016.084792504],[2075313.7898981678,13917842.079417242],[2075521.2414003848,13917661.374232743],[2075708.636382067,13917299.97259342],[2075782.2158708335,13917202.915101208],[2076145.8291364075,13917119.130779227],[2076334.3149120493,13917117.56156006],[2076478.2113786845,13917040.574771836],[2076652.2013505267,13916873.255694943],[2076943.3256485725,13916722.674952906],[2077043.6990803918,13916525.228530442],[2077127.3301792652,13916391.376189241],[2077236.568934619,13916268.522489026],[2077399.9691326348,13916292.532585766],[2077644.998878623,13916460.712586747],[2077745.9845565893,13916773.046319442],[2077822.8851638087,13917018.092182355],[2077959.8301561906,13917210.297466153],[2077902.1743791136,13917349.67922778],[2077854.1515797272,13917585.137276886],[2077839.7667736318,13918214.648203855],[2077753.302465213,13918483.722582264],[2077676.4005849848,13918724.011118378],[2077690.8370377677,13918921.02240888],[2077796.5828956256,13919108.432966491],[2078017.6471651804,13919142.033573944],[2078205.0321759107,13919142.022814833],[2078373.2223801673,13919055.529535579],[2078498.1332461694,13918844.086303288],[2078675.917483185,13918728.746544255],[2079216.5542232825,13919089.121886324],[2079610.6083397635,13919079.470115352],[2079807.5770545914,13918877.647541039],[2079860.4185137197,13918493.216391461],[2079894.052058903,13918300.999429062],[2080086.2663661,13918291.391889468],[2080393.7875056919,13917969.405501604],[2080461.0414011045,13917863.668525094],[2080715.7186586868,13917897.298077941],[2080898.3409998114,13917940.52599104],[2081104.991158005,13918137.555384183],[2081340.454104199,13918272.089640314],[2081499.0376616998,13918473.889741208],[2081859.462856699,13918733.340621537],[2081835.433245165,13919026.490602706],[2081465.4668365412,13919622.348858027],[2081686.5518779047,13919987.511913177],[2082116.6546402455,13920275.865785807],[2082126.2832269652,13920780.38988376],[2082097.472602004,13920881.297056146],[2082275.2751560304,13921063.903872892],[2082964.8329020324,13921510.749845678],[2083224.3518175113,13921726.96573801],[2083214.783879046,13922149.839254994],[2083604.0353526324,13922505.393984556],[2083450.305736574,13923134.915384844],[2083683.4020957204,13923500.108054325],[2083832.3550702771,13923639.445271527],[2084043.7996935393,13923769.18429112],[2084125.5364115601,13924100.74136348],[2084111.1372418352,13924470.747632865],[2084063.0857136573,13924720.630286045],[2084245.6947799942,13924576.441743718],[2084697.3836767478,13924557.188947279],[2084956.885129752,13924499.506821122],[2085120.2447399583,13924398.590790322],[2085411.0158233303,13924446.640376579],[2085646.436601842,13924398.55529911],[2085829.023699162,13924369.725049255],[2085978.001469472,13924422.582074143],[2086184.649516945,13924571.510610208],[2086405.701370738,13924859.817406869],[2086554.7000582935,13925225.016057195],[2087059.2709000988,13925426.7905637],[2087365.5181243096,13925673.01124693]]]}}]}
